{
  "type": "FeatureCollection",
  "features": [
    {
      "type": "Feature",
      "properties": {
        "norad_id": 34056,
        "name": "COSMOS 2251 DEB",
        "group": "cosmos-2251-debris",
        "lat": -3.986165427958729,
        "lon": 48.43853115890644,
        "alt_km": 836.9287821997841,
        "timestamp": "2025-12-27T17:24:57.801303+00:00",
        "meta_object_name": "COSMOS 2251 DEB",
        "meta_object_id": "1993-036JT",
        "meta_epoch": "2025-12-27T12:40:57.156384",
        "meta_mean_motion": 14.20607263,
        "meta_eccentricity": 0.0123643,
        "meta_inclination": 74.058,
        "meta_ra_of_asc_node": 49.9324,
        "meta_arg_of_pericenter": 93.8639,
        "meta_mean_anomaly": 335.2424,
        "meta_ephemeris_type": 0,
        "meta_classification_type": "U",
        "meta_norad_cat_id": 34056,
        "meta_element_set_no": 999,
        "meta_rev_at_epoch": 86621,
        "meta_bstar": 0.00075072,
        "meta_mean_motion_dot": 1.721e-05,
        "meta_mean_motion_ddot": 0,
        "tle_line1": "1 34056U 93036JT  25361.52843931  .00001721  00000+0  75072-3 0  9995",
        "tle_line2": "2 34056  74.0580  49.9324 0123643  93.8639 335.2424 14.20607263866219"
      },
      "geometry": {
        "type": "Point",
        "coordinates": [
          48.43853115890644,
          -3.986165427958729
        ]
      }
    },
    {
      "type": "Feature",
      "properties": {
        "norad_id": 34058,
        "name": "COSMOS 2251 DEB",
        "group": "cosmos-2251-debris",
        "lat": -72.99111424263735,
        "lon": 83.40540132794497,
        "alt_km": 1228.391225979858,
        "timestamp": "2025-12-27T17:24:57.801314+00:00",
        "meta_object_name": "COSMOS 2251 DEB",
        "meta_object_id": "1993-036JV",
        "meta_epoch": "2025-12-27T09:05:34.640160",
        "meta_mean_motion": 13.56100418,
        "meta_eccentricity": 0.0377234,
        "meta_inclination": 73.9319,
        "meta_ra_of_asc_node": 154.3839,
        "meta_arg_of_pericenter": 146.8364,
        "meta_mean_anomaly": 232.9863,
        "meta_ephemeris_type": 0,
        "meta_classification_type": "U",
        "meta_norad_cat_id": 34058,
        "meta_element_set_no": 999,
        "meta_rev_at_epoch": 83341,
        "meta_bstar": 0.0008815,
        "meta_mean_motion_dot": 9.58e-06,
        "meta_mean_motion_ddot": 0,
        "tle_line1": "1 34058U 93036JV  25361.37887315  .00000958  00000+0  88150-3 0  9996",
        "tle_line2": "2 34058  73.9319 154.3839 0377234 146.8364 232.9863 13.56100418833416"
      },
      "geometry": {
        "type": "Point",
        "coordinates": [
          83.40540132794497,
          -72.99111424263735
        ]
      }
    },
    {
      "type": "Feature",
      "properties": {
        "norad_id": 34059,
        "name": "COSMOS 2251 DEB",
        "group": "cosmos-2251-debris",
        "lat": -41.902275259050704,
        "lon": 143.12222980848432,
        "alt_km": 720.1166678251266,
        "timestamp": "2025-12-27T17:24:57.801325+00:00",
        "meta_object_name": "COSMOS 2251 DEB",
        "meta_object_id": "1993-036JW",
        "meta_epoch": "2025-12-27T11:17:06.592416",
        "meta_mean_motion": 14.53041939,
        "meta_eccentricity": 0.0018345,
        "meta_inclination": 74.0378,
        "meta_ra_of_asc_node": 158.4861,
        "meta_arg_of_pericenter": 234.7175,
        "meta_mean_anomaly": 185.4408,
        "meta_ephemeris_type": 0,
        "meta_classification_type": "U",
        "meta_norad_cat_id": 34059,
        "meta_element_set_no": 999,
        "meta_rev_at_epoch": 88673,
        "meta_bstar": 0.0010346,
        "meta_mean_motion_dot": 4.257e-05,
        "meta_mean_motion_ddot": 0,
        "tle_line1": "1 34059U 93036JW  25361.47021519  .00004257  00000+0  10346-2 0  9991",
        "tle_line2": "2 34059  74.0378 158.4861 0018345 234.7175 185.4408 14.53041939886736"
      },
      "geometry": {
        "type": "Point",
        "coordinates": [
          143.12222980848432,
          -41.902275259050704
        ]
      }
    },
    {
      "type": "Feature",
      "properties": {
        "norad_id": 34061,
        "name": "COSMOS 2251 DEB",
        "group": "cosmos-2251-debris",
        "lat": -16.56061897181542,
        "lon": -129.19327932304301,
        "alt_km": 749.084679163213,
        "timestamp": "2025-12-27T17:24:57.801336+00:00",
        "meta_object_name": "COSMOS 2251 DEB",
        "meta_object_id": "1993-036JY",
        "meta_epoch": "2025-12-27T09:58:09.446304",
        "meta_mean_motion": 14.40386437,
        "meta_eccentricity": 0.0020949,
        "meta_inclination": 74.0381,
        "meta_ra_of_asc_node": 236.2624,
        "meta_arg_of_pericenter": 311.133,
        "meta_mean_anomaly": 223.3228,
        "meta_ephemeris_type": 0,
        "meta_classification_type": "U",
        "meta_norad_cat_id": 34061,
        "meta_element_set_no": 999,
        "meta_rev_at_epoch": 88391,
        "meta_bstar": 0.00030475,
        "meta_mean_motion_dot": 9.43e-06,
        "meta_mean_motion_ddot": 0,
        "tle_line1": "1 34061U 93036JY  25361.41538711  .00000943  00000+0  30475-3 0  9999",
        "tle_line2": "2 34061  74.0381 236.2624 0020949 311.1330 223.3228 14.40386437883911"
      },
      "geometry": {
        "type": "Point",
        "coordinates": [
          -129.19327932304301,
          -16.56061897181542
        ]
      }
    },
    {
      "type": "Feature",
      "properties": {
        "norad_id": 34062,
        "name": "COSMOS 2251 DEB",
        "group": "cosmos-2251-debris",
        "lat": 21.51770132725961,
        "lon": 115.03287513344894,
        "alt_km": 679.3332519130772,
        "timestamp": "2025-12-27T17:24:57.801347+00:00",
        "meta_object_name": "COSMOS 2251 DEB",
        "meta_object_id": "1993-036JZ",
        "meta_epoch": "2025-12-27T09:28:30.025344",
        "meta_mean_motion": 14.79260793,
        "meta_eccentricity": 0.0072415,
        "meta_inclination": 74.0278,
        "meta_ra_of_asc_node": 109.2001,
        "meta_arg_of_pericenter": 185.209,
        "meta_mean_anomaly": 236.2782,
        "meta_ephemeris_type": 0,
        "meta_classification_type": "U",
        "meta_norad_cat_id": 34062,
        "meta_element_set_no": 999,
        "meta_rev_at_epoch": 88812,
        "meta_bstar": 0.0029167,
        "meta_mean_motion_dot": 0.00022706,
        "meta_mean_motion_ddot": 0,
        "tle_line1": "1 34062U 93036JZ  25361.39479196  .00022706  00000+0  29167-2 0  9994",
        "tle_line2": "2 34062  74.0278 109.2001 0072415 185.2090 236.2782 14.79260793888127"
      },
      "geometry": {
        "type": "Point",
        "coordinates": [
          115.03287513344894,
          21.51770132725961
        ]
      }
    },
    {
      "type": "Feature",
      "properties": {
        "norad_id": 34064,
        "name": "COSMOS 2251 DEB",
        "group": "cosmos-2251-debris",
        "lat": 59.62348257578352,
        "lon": -87.69069936260142,
        "alt_km": 751.5396304848355,
        "timestamp": "2025-12-27T17:24:57.801357+00:00",
        "meta_object_name": "COSMOS 2251 DEB",
        "meta_object_id": "1993-036KB",
        "meta_epoch": "2025-12-27T02:50:13.037280",
        "meta_mean_motion": 14.4238582,
        "meta_eccentricity": 0.00224202,
        "meta_inclination": 74.0315,
        "meta_ra_of_asc_node": 244.1934,
        "meta_arg_of_pericenter": 308.8499,
        "meta_mean_anomaly": 201.7532,
        "meta_ephemeris_type": 0,
        "meta_classification_type": "U",
        "meta_norad_cat_id": 34064,
        "meta_element_set_no": 999,
        "meta_rev_at_epoch": 88349,
        "meta_bstar": 0.00052948884,
        "meta_mean_motion_dot": 1.73e-05,
        "meta_mean_motion_ddot": 0,
        "tle_line1": "1 34064U 93036KB  25361.11820645  .00001730  00000+0  52949-3 0  9994",
        "tle_line2": "2 34064  74.0315 244.1934 0022420 308.8499 201.7532 14.42385820883496"
      },
      "geometry": {
        "type": "Point",
        "coordinates": [
          -87.69069936260142,
          59.62348257578352
        ]
      }
    },
    {
      "type": "Feature",
      "properties": {
        "norad_id": 34065,
        "name": "COSMOS 2251 DEB",
        "group": "cosmos-2251-debris",
        "lat": -24.39467719701993,
        "lon": 57.97806410372944,
        "alt_km": 776.1024961758576,
        "timestamp": "2025-12-27T17:24:57.801368+00:00",
        "meta_object_name": "COSMOS 2251 DEB",
        "meta_object_id": "1993-036KC",
        "meta_epoch": "2025-12-27T02:08:08.317824",
        "meta_mean_motion": 14.38077406,
        "meta_eccentricity": 0.00169321,
        "meta_inclination": 74.0345,
        "meta_ra_of_asc_node": 231.6907,
        "meta_arg_of_pericenter": 326.8531,
        "meta_mean_anomaly": 183.8139,
        "meta_ephemeris_type": 0,
        "meta_classification_type": "U",
        "meta_norad_cat_id": 34065,
        "meta_element_set_no": 999,
        "meta_rev_at_epoch": 88411,
        "meta_bstar": 0.00016680362,
        "meta_mean_motion_dot": 4.8e-06,
        "meta_mean_motion_ddot": 0,
        "tle_line1": "1 34065U 93036KC  25361.08898516  .00000480  00000+0  16680-3 0  9996",
        "tle_line2": "2 34065  74.0345 231.6907 0016932 326.8531 183.8139 14.38077406884115"
      },
      "geometry": {
        "type": "Point",
        "coordinates": [
          57.97806410372944,
          -24.39467719701993
        ]
      }
    }
  ]
}